#aV2023 11 28  0  0  0.00000000     288 DD+AD WGS84 FIT  NGA
## 2290 172800.00000000   300.00000000 60276 0.0000000000000
+   32     1  2  3  4  5  6  7  8  9 10 11 12 13 14 15 16 17
+         18 19 20 21 22 23 24 25 26 27 28 29 30 31 32  0  0
+          0  0  0  0  0  0  0  0  0  0  0  0  0  0  0  0  0
+          0  0  0  0  0  0  0  0  0  0  0  0  0  0  0  0  0
+          0  0  0  0  0  0  0  0  0  0  0  0  0  0  0  0  0
++         2  2  2  2  2  2  2  2  2  2  2  2  2  2  2  2  2
++         2  2  2  2  2  2  2  2  2  2  2  2  2  2  2  0  0
++         0  0  0  0  0  0  0  0  0  0  0  0  0  0  0  0  0
++         0  0  0  0  0  0  0  0  0  0  0  0  0  0  0  0  0
++         0  0  0  0  0  0  0  0  0  0  0  0  0  0  0  0  0
%c cc cc ccc ccc cccc cccc cccc cccc ccccc ccccc ccccc ccccc
%c cc cc ccc ccc cccc cccc cccc cccc ccccc ccccc ccccc ccccc
%f  0.0000000  0.000000000  0.00000000000  0.000000000000000
%f  0.0000000  0.000000000  0.00000000000  0.000000000000000
%i    0    0    0    0      0      0      0      0         0
%i    0    0    0    0      0      0      0      0         0
/*      NGA, ST. LOUIS,MO.                                  
/*   EPHEMERIS COMPUTED FROM 2 DAYS OF DATA                 
/*   EPOCHA v8 SMOOTHER                                     
/*   G2139 IERS2010 SATIGS SATAPC                           
*  2023 11 28  5 30  0.00000000
P  1  21947.361942  14810.470629   3441.006830    163.383622                    
V  1   2689.103376   4228.611526 -31783.467393      0.002755                    
P  2  21305.998101  15786.199134  -2362.359839   -523.062119                    
V  2  -4356.748189    102.837625 -31583.349661      0.051548                    
P  3  12284.455789  11304.453531  20538.495527     15.821482                    
V  3  -4331.560580  25974.818888 -11518.693971      0.264401                    
P  4  21373.006277   3549.328013  15457.923399    224.889934                    
V  4 -17701.550948   8518.824299  22402.132274      0.102778                    
P  5  -6860.697739 -22288.968237 -12805.522509   -152.053923                    
V  5   3488.424869 -15746.232402  25989.581402     -0.014468                    
P  6   3996.408170 -14968.245971  21630.400062    493.922945                    
V  6  21631.516823  16550.226603   7575.876296     -0.107128                    
P  7  20588.724650   1019.031594 -16527.956191      2.038063                    
V  7  16033.735379  14807.505902  19833.841075     -0.098129                    
P  8  14813.492788   9078.128245 -20281.427963   -154.227788                    
V  8 -22916.866280  11164.385231 -11377.883839     -0.018950                    
P  9  25081.580910  -6203.247066   6201.629281     10.203633                    
V  9  -6192.619386   5754.383306  30310.784232      0.114567                    
P 10 -10782.013774  20909.998060 -11802.198905    -63.128405                    
V 10    -28.799600 -15519.736063 -27350.298231     -0.015139                    
P 11  -7013.404795 -20285.125566  15701.206954   -478.593573                    
V 11  16270.963016  11537.810393  22154.451138     -0.157742                    
P 12 -11295.048929 -13234.396739  19811.621630   -451.700244                    
V 12   6314.777199 -24976.792121 -12833.027411     -0.040441                    
P 13  -3973.858633 -14575.798317 -22048.016068    599.967496                    
V 13  26648.594044  -6705.443882   -163.255883      0.040087                    
P 14  13357.090194 -17811.310203 -14329.120512    255.657620                    
V 14   -458.488319  18506.396404 -23567.891323      0.106559                    
P 15 -15865.895108  -8034.257824 -20274.055679    101.498767                    
V 15  20700.708830 -13557.984805 -10879.502004      0.037772                    
P 16    386.281224  25024.233814  -8484.875666   -414.232162                    
V 16  -5046.961126   9589.535220  29596.304665      0.068824                    
P 17  21568.492074 -13411.260517   8433.597283    722.765260                    
V 17  10201.885835  -1247.995008 -29483.241442     -0.004301                    
P 18 -19258.241885    503.013760 -18350.944087   -491.485162                    
V 18 -17337.325226 -15505.562145  17576.317579     -0.105232                    
P 19  15016.545491 -15265.909051  15290.594889    404.969931                    
V 19  19668.130033  -3565.491949 -22930.886834      0.052372                    
P 20   -943.437295 -26644.051019     84.079833    399.401423                    
V 20   2955.561419    -64.798379  31430.395028     -0.019341                    
P 21  19933.861066  17295.877999  -5449.419019    143.089233                    
V 21  -7305.359312  -2297.890686 -30185.673482     -0.010444                    
P 22  10640.500672 -23186.297632  -7459.654044     75.872028                    
V 22    143.406117  10284.900373 -29704.272133     -0.069072                    
P 23 -14607.918008   9346.338619 -20047.748314    106.436433                    
V 23   1666.511513 -25464.036589 -13256.918334      0.065951                    
P 24 -21411.043394 -15941.361828  -2660.343444   -381.375181                    
V 24   4176.310451  -1210.031064 -30632.965586     -0.085900                    
P 25 -15351.438186    502.203691  21325.191522    479.268265                    
V 25   2915.877782 -27756.370012   2978.296243      0.015731                    
P 26  -3186.417151  26068.356440   2159.170521    213.483487                    
V 26  -3822.465828  -3181.794896  31195.373729     -0.028505                    
P 27    540.933496  15890.464026 -21470.728180    -75.912228                    
V 27 -24948.681279   9590.316360   6962.664924     -0.050545                    
P 28  -5819.853900  14359.466261  21548.512876    -56.429280                    
V 28 -22467.193784 -15721.639728   4403.416265     -0.091650                    
P 29 -25510.855635   3466.943302   6701.194165   -610.081012                    
V 29   7434.172962  -4735.191928  30450.622263      0.001728                    
P 30  13514.645331  -9028.158406 -20920.728561   -463.517285                    
V 30  20840.610735  17024.486823   5816.531717      0.041458                    
P 31   1984.518079  18535.855906  18553.597231   -226.129364                    
V 31 -19908.266146 -13793.245020  16143.255336     -0.003369                    
P 32 -18081.027412  15985.558281  11031.949200   -590.682035                    
V 32 -13717.318588   3002.714194 -27494.675312     -0.041345                    
EOF
